#dV2023  2 14 10  0  0.00000000    1682       CTS   FIT  GFZ
## 2249 208800.00000000    30.00000000 59989 0.4166666666667
+    1   L64  0  0  0  0  0  0  0  0  0  0  0  0  0  0  0  0
+          0  0  0  0  0  0  0  0  0  0  0  0  0  0  0  0  0
+          0  0  0  0  0  0  0  0  0  0  0  0  0  0  0  0  0
+          0  0  0  0  0  0  0  0  0  0  0  0  0  0  0  0  0
+          0  0  0  0  0  0  0  0  0  0  0  0  0  0  0  0  0
++         0  0  0  0  0  0  0  0  0  0  0  0  0  0  0  0  0
++         0  0  0  0  0  0  0  0  0  0  0  0  0  0  0  0  0
++         0  0  0  0  0  0  0  0  0  0  0  0  0  0  0  0  0
++         0  0  0  0  0  0  0  0  0  0  0  0  0  0  0  0  0
++         0  0  0  0  0  0  0  0  0  0  0  0  0  0  0  0  0
%c L  cc GPS ccc cccc cccc cccc cccc ccccc ccccc ccccc ccccc
%c cc cc ccc ccc cccc cccc cccc cccc ccccc ccccc ccccc ccccc
%f  0.0000000  0.000000000  0.00000000000  0.000000000000000
%f  0.0000000  0.000000000  0.00000000000  0.000000000000000
%i    0    0    0    0      0      0      0      0         0
%i    0    0    0    0      0      0      0      0         0
/* CCCCCCCCCCCCCCCCCCCCCCCCCCCCCCCCCCCCCCCCCCCCCCCCCCCCCCCCCCCCCCCCCCCCCCCCCCCCC
/* C                             GFZ RSO-ORBIT                                 C
/* C DOI: https://doi.org/10.5880/GFZ_ORBIT/RSO/L64_G_v02                      C
/* C                                                                           C
/* C DORIS        RMS: not applicable                                          C
/* C GNSS-E Code  RMS: not applicable                                          C
/* C GNSS-E Phase RMS: not applicable                                          C
/* C GNSS-G Code  RMS:  45.753 [cm]   Obs.acc.:     13670 Obs.eli.:      1073  C
/* C GNSS-G Phase RMS:   3.897 [mm]   Obs.acc.:     13670 Obs.eli.:      1073  C
/* C SLR          RMS:   1.693 [cm]   Obs.acc.:        59 Obs.eli.:         0  C
/* C                                                                           C
/* CCCCCCCCCCCCCCCCCCCCCCCCCCCCCCCCCCCCCCCCCCCCCCCCCCCCCCCCCCCCCCCCCCCCCCCCCCCCC
*  2023  2 14 20 37 30.00000000
PL64   -196.563737   6797.820302    911.861127  14793.742536
VL64   3304.986586  10400.313055 -75579.750956 999999.999999
*  2023  2 14 20 38  0.00000000
PL64   -186.479201   6825.231126    684.655691  14794.202567
VL64   3415.571147   7871.870913 -75876.458071 999999.999999
*  2023  2 14 20 38 30.00000000
PL64   -176.085189   6845.042793    456.687009  14794.662608
VL64   3511.278032   5334.694724 -76088.538441 999999.999999
*  2023  2 14 20 39  0.00000000
PL64   -165.426548   6857.233482    228.209302  14795.122640
VL64   3591.970762   2791.705795 -76215.781053 999999.999999
*  2023  2 14 20 39 30.00000000
PL64   -154.548486   6861.790142     -0.522726  14795.582685
VL64   3657.543310    245.830988 -76258.075492 999999.999999
*  2023  2 14 20 40  0.00000000
PL64   -143.496485   6858.708509   -229.254189  14796.042728
VL64   3707.920071  -2300.002410 -76215.411271 999999.999999
*  2023  2 14 20 40 30.00000000
PL64   -132.316208   6847.993094   -457.730320  14796.502758
VL64   3743.055447  -4842.870297 -76087.876899 999999.999999
*  2023  2 14 20 41  0.00000000
PL64   -121.053411   6829.657171   -685.696765  14796.962800
VL64   3762.933255  -7379.855167 -75875.659679 999999.999999
*  2023  2 14 20 41 30.00000000
PL64   -109.753854   6803.722753   -912.899878  14797.422823
VL64   3767.566436  -9908.050144 -75579.045243 999999.999999
*  2023  2 14 20 42  0.00000000
PL64    -98.463216   6770.220553  -1139.087019  14797.882879
VL64   3756.997074 -12424.562811 -75198.416479 999999.999999
*  2023  2 14 20 42 30.00000000
PL64    -87.227004   6729.189934  -1364.006838  14798.342904
VL64   3731.296587 -14926.518603 -74734.252506 999999.999999
*  2023  2 14 20 43  0.00000000
PL64    -76.090467   6680.678852  -1587.409570  14798.802946
VL64   3690.565695 -17411.064152 -74187.127769 999999.999999
*  2023  2 14 20 43 30.00000000
PL64    -65.098511   6624.743789  -1809.047310  14799.262980
VL64   3634.934018 -19875.370687 -73557.710963 999999.999999
*  2023  2 14 20 44  0.00000000
PL64    -54.295607   6561.449669  -2028.674302  14799.723029
VL64   3564.559710 -22316.637193 -72846.763897 999999.999999
*  2023  2 14 20 44 30.00000000
PL64    -43.725710   6490.869777  -2246.047214  14800.183055
VL64   3479.629259 -24732.093576 -72055.140503 999999.999999
*  2023  2 14 20 45  0.00000000
PL64    -33.432174   6413.085655  -2460.925411  14800.643092
VL64   3380.357225 -27119.003968 -71183.785736 999999.999999
*  2023  2 14 20 45 30.00000000
PL64    -23.457667   6328.186998  -2673.071229  14801.103155
VL64   3266.985792 -29474.670351 -70233.734396 999999.999999
*  2023  2 14 20 46  0.00000000
PL64    -13.844090   6236.271535  -2882.250241  14801.563183
VL64   3139.784252 -31796.436320 -69206.109382 999999.999999
*  2023  2 14 20 46 30.00000000
PL64     -4.632496   6137.444894  -3088.231518  14802.023221
VL64   2999.048583 -34081.690242 -68102.119602 999999.999999
*  2023  2 14 20 47  0.00000000
PL64      4.136989   6031.820471  -3290.787884  14802.483264
VL64   2845.101024 -36327.868189 -66923.057921 999999.999999
*  2023  2 14 20 47 30.00000000
PL64     12.425245   5919.519277  -3489.696165  14802.943287
VL64   2678.289569 -38532.456266 -65670.299034 999999.999999
*  2023  2 14 20 48  0.00000000
PL64     20.194234   5800.669787  -3684.737433  14803.403354
VL64   2498.987195 -40692.992993 -64345.298372 999999.999999
*  2023  2 14 20 48 30.00000000
PL64     27.407074   5675.407777  -3875.697246  14803.863406
VL64   2307.590933 -42807.073116 -62949.590500 999999.999999
*  2023  2 14 20 49  0.00000000
PL64     34.028106   5543.876152  -4062.365877  14804.323472
VL64   2104.521199 -44872.350863 -61484.785883 999999.999999
*  2023  2 14 20 49 30.00000000
PL64     40.022970   5406.224761  -4244.538545  14804.783527
VL64   1890.221236 -46886.541784 -59952.567959 999999.999999
*  2023  2 14 20 50  0.00000000
PL64     45.358668   5262.610212  -4422.015624  14805.243594
VL64   1665.156331 -48847.424443 -58354.690930 999999.999999
*  2023  2 14 20 50 30.00000000
PL64     50.003629   5113.195681  -4594.602853  14805.703661
VL64   1429.812950 -50752.842241 -56692.977967 999999.999999
*  2023  2 14 20 51  0.00000000
PL64     53.927773   4958.150715  -4762.111544  14806.163748
VL64   1184.697886 -52600.705830 -54969.319504 999999.999999
*  2023  2 14 20 51 30.00000000
PL64     57.102570   4797.651022  -4924.358777  14806.623822
VL64    930.337445 -54388.995897 -53185.670763 999999.999999
*  2023  2 14 20 52  0.00000000
PL64     59.501096   4631.878263  -5081.167593  14807.083894
VL64    667.276490 -56115.765292 -51344.048750 999999.999999
*  2023  2 14 20 52 30.00000000
PL64     61.098090   4461.019827  -5232.367171  14807.543968
VL64    396.077393 -57779.140637 -49446.529597 999999.999999
*  2023  2 14 20 53  0.00000000
PL64     61.870001   4285.268614  -5377.793005  14808.004087
VL64    117.319006 -59377.324036 -47495.246137 999999.999999
*  2023  2 14 20 53 30.00000000
PL64     61.795039   4104.822798  -5517.287069  14808.464168
VL64   -168.404297 -60908.594907 -45492.385360 999999.999999
*  2023  2 14 20 54  0.00000000
PL64     60.853219   3919.885601  -5650.697976  14808.924259
VL64   -460.483461 -62371.311718 -43440.185555 999999.999999
*  2023  2 14 20 54 30.00000000
PL64     59.026405   3730.665046  -5777.881128  14809.384347
VL64   -758.295554 -63763.913195 -41340.933314 999999.999999
*  2023  2 14 20 55  0.00000000
PL64     56.298348   3537.373720  -5898.698854  14809.844449
VL64  -1061.204915 -65084.919333 -39196.960942 999999.999999
*  2023  2 14 20 55 30.00000000
PL64     52.654724   3340.228525  -6013.020548  14810.304533
VL64  -1368.564827 -66332.932879 -37010.643824 999999.999999
*  2023  2 14 20 56  0.00000000
PL64     48.083164   3139.450431  -6120.722787  14810.764655
VL64  -1679.718871 -67506.640530 -34784.397158 999999.999999
*  2023  2 14 20 56 30.00000000
PL64     42.573282   2935.264220  -6221.689452  14811.224764
VL64  -1994.001242 -68604.813054 -32520.672836 999999.999999
*  2023  2 14 20 57  0.00000000
PL64     36.116703   2727.898236  -6315.811831  14811.684876
VL64  -2310.737062 -69626.305185 -30221.957158 999999.999999
*  2023  2 14 20 57 30.00000000
PL64     28.707089   2517.584133  -6402.988721  14812.144979
VL64  -2629.243685 -70570.055747 -27890.769186 999999.999999
*  2023  2 14 20 58  0.00000000
PL64     20.340159   2304.556622  -6483.126524  14812.605088
VL64  -2948.832250 -71435.088734 -25529.660063 999999.999999
*  2023  2 14 20 58 30.00000000
PL64     11.013707   2089.053209  -6556.139341  14813.065195
VL64  -3268.809423 -72220.516397 -23141.210856 999999.999999
*  2023  2 14 20 59  0.00000000
PL64      0.727611   1871.313930  -6621.949054  14813.525302
VL64  -3588.478471 -72925.541064 -20728.027474 999999.999999
*  2023  2 14 20 59 30.00000000
PL64    -10.516156   1651.581077  -6680.485397  14813.985414
VL64  -3907.139595 -73549.454247 -18292.736432 999999.999999
*  2023  2 14 21  0  0.00000000
PL64    -22.713517   1430.098939  -6731.686009  14814.445511
VL64  -4224.090842 -74091.635513 -15837.982388 999999.999999
*  2023  2 14 21  0 30.00000000
PL64    -35.858289   1207.113532  -6775.496490  14814.905631
VL64  -4538.629835 -74551.551569 -13366.426876 999999.999999
*  2023  2 14 21  1  0.00000000
PL64    -49.942183    982.872343  -6811.870447  14815.365737
VL64  -4850.055751 -74928.757455 -10880.748024 999999.999999
*  2023  2 14 21  1 30.00000000
PL64    -64.954812    757.624054  -6840.769546  14815.825851
VL64  -5157.670422 -75222.899698  -8383.637471 999999.999999
*  2023  2 14 21  2  0.00000000
PL64    -80.883699    531.618273  -6862.163539  14816.285975
VL64  -5460.778513 -75433.716778  -5877.794605 999999.999999
*  2023  2 14 21  2 30.00000000
PL64    -97.714284    305.105254  -6876.030284  14816.746103
VL64  -5758.687994 -75561.036991  -3365.922607 999999.999999
EOF
